satname,norad_id,inclination_deg,eccentricity,mean_motion_rev_per_day,perigee_km,apogee_km,l1,l2
STARLINK-1493,45759,53.0548,0.0001487,15.0639185,546.206733582183,548.2663396719763,1 45759U 20038AF  25335.59353980 -.00001624  00000+0 -90173-4 0  9991,2 45759  53.0548 296.9874 0001487  84.9649 275.1510 15.06391850301689
STARLINK-1494,45760,53.0538,0.000561,15.54217233,400.6239718471643,408.2340108894805,1 45760U 20038AG  25335.23764799  .00048298  00000+0  73057-3 0  9995,2 45760  53.0538 273.5769 0005610 100.2981 259.8662 15.54217233301993
STARLINK-1502,45764,53.0572,0.0001882,15.06392047,545.9325776591131,548.5392880310364,1 45764U 20038AL  25335.62671669  .00000843  00000+0  75486-4 0  9998,2 45764  53.0572 296.8408 0001882  86.5473 273.5731 15.06392047301705
STARLINK-1470,45772,53.0494,0.0006571,15.20048229,501.1716343232474,510.218366338082,1 45772U 20038AU  25335.09579257  .00020183  00000+0  93592-3 0  9994,2 45772  53.0494 269.0099 0006571  37.9340 322.2117 15.20048229302042
STARLINK-1482,45773,53.0543,0.0001228,15.06394331,546.3784977247496,548.0793675978102,1 45773U 20038AV  25335.12726719  .00000186  00000+0  31370-4 0  9994,2 45773  53.0543 279.0803 0001228  93.4761 266.6369 15.06394331301906
STARLINK-1496,45780,53.0533,0.0001251,15.06393098,546.366347904047,548.099075405903,1 45780U 20038BC  25335.29313514  .00005575  00000+0  39293-3 0  9993,2 45780  53.0533 278.3355 0001251  84.0997 276.0134 15.06393098301915
STARLINK-1497,45781,53.0389,0.0007309,15.63875274,371.53844728725926,381.41233968405686,1 45781U 20038BD  25335.91667823  .00061935  00000+0  64728-3 0  9991,2 45781  53.0389 209.1330 0007309  86.4508 288.0153 15.63875274  5991
STARLINK-1510,45784,53.0254,0.0002997,15.84173266,316.646602712638,320.6606590167785,1 45784U 20038BG  25335.91667823  .00241605  00000+0  10228-2 0  9993,2 45784  53.0254 181.1563 0002997 175.9515 313.0438 15.84173266  5666
STARLINK-1513,45786,53.0552,0.0001446,15.06397432,546.2180219600368,548.2208350391602,1 45786U 20038BJ  25335.25627242  .00000454  00000+0  49343-4 0  9990,2 45786  53.0552 278.5036 0001446  88.3437 271.7718 15.06397432301929
STARLINK-1522,46027,53.0518,0.000152,15.06395506,546.1726763608858,548.2779865096427,1 46027U 20055A   25335.83405589 -.00000158  00000+0  83126-5 0  9990,2 46027  53.0518 205.9081 0001520  88.9365 271.1798 15.06395506294139
STARLINK-1523,46028,53.0555,0.0001601,15.06406268,546.0836022591129,548.3010927161786,1 46028U 20055B   25335.84879517  .00002125  00000+0  16146-3 0  9999,2 46028  53.0555 205.8453 0001601  91.3541 268.7631 15.06406268294155
STARLINK-1526,46029,53.054,0.0001565,15.06405513,546.1108470338104,548.2784758438393,1 46029U 20055C   25335.84142243  .00001247  00000+0  10260-3 0  9994,2 46029  53.0540 205.8729 0001565  90.8419 269.2750 15.06405513294142
STARLINK-1555,46032,53.0552,0.0001524,15.0640719,546.1341019495667,548.2449414733846,1 46032U 20055F   25335.82667285  .00001908  00000+0  14695-3 0  9994,2 46032  53.0552 205.9404 0001524  87.3721 272.7443 15.06407190294143
STARLINK-1556,46033,53.0549,0.0001792,15.06405166,545.9547053132565,548.4367445618745,1 46033U 20055G   25335.80824602  .00001213  00000+0  10030-3 0  9999,2 46033  53.0549 206.0242 0001792  86.9000 273.2194 15.06405166294111
STARLINK-1557,46034,53.0527,0.0001586,15.06402826,546.1045377612254,548.301255576448,1 46034U 20055H   25335.81192584  .00001372  00000+0  11097-3 0  9998,2 46034  53.0527 206.0063 0001586  79.4704 280.6463 15.06402826294119
STARLINK-1558,46035,53.0539,0.000158,15.06408867,546.0901812153079,548.278582772019,1 46035U 20055J   25335.81929965  .00001684  00000+0  13187-3 0  9998,2 46035  53.0539 205.9750 0001580  87.2628 272.8541 15.06408867294144
STARLINK-1560,46036,53.0537,0.0001593,15.06398508,546.1129219534423,548.3193394608852,1 46036U 20055K   25335.07475182  .00001073  00000+0  90928-4 0  9995,2 46036  53.0537 209.3198 0001593  88.5276 271.5896 15.06398508294031
STARLINK-1567,46038,53.0556,0.0001729,15.06402944,546.0051438113805,548.3999262225889,1 46038U 20055M   25335.81562090  .00000205  00000+0  32655-4 0  9993,2 46038  53.0556 205.9932 0001729 102.1535 257.9648 15.06402944294138
STARLINK-1569,46039,53.0525,0.0001513,15.06409747,546.1338842311461,548.2294856652106,1 46039U 20055N   25335.82298593  .00001409  00000+0  11342-3 0  9995,2 46039  53.0525 205.9597 0001513  95.9257 264.1904 15.06409747294136
STARLINK-1582,46043,53.0534,0.0001411,15.06400684,546.2322951918568,548.1866279633132,1 46043U 20055S   25335.83036484  .00000946  00000+0  82382-4 0  9998,2 46043  53.0534 205.9244 0001411  92.8643 267.2507 15.06400684294136
STARLINK-1591,46045,53.0534,0.0001373,15.06403196,546.2509136637891,548.1526116880195,1 46045U 20055U   25335.78981999  .00001799  00000+0  13960-3 0  9996,2 46045  53.0534 206.1079 0001373  89.2898 270.8249 15.06403196294118
STARLINK-1524,46047,53.0531,0.0001575,15.06406559,546.1007163891254,548.2821948526462,1 46047U 20055W   25335.80917035 -.00000208  00000+0  49389-5 0  9992,2 46047  53.0531 196.0206 0001575 107.5227 252.5934 15.06406559294271
STARLINK-1527,46048,53.0538,0.0001566,15.06408203,546.1019113917046,548.2709226859206,1 46048U 20055X   25335.80547880  .00001485  00000+0  11853-3 0  9990,2 46048  53.0538 196.0359 0001566  93.5937 266.5231 15.06408203294251
STARLINK-1540,46051,53.0545,0.0001645,15.06400269,546.0715137899824,548.3499531943007,1 46051U 20055AA  25335.83865575  .00000202  00000+0  32470-4 0  9996,2 46051  53.0545 195.8880 0001645  94.5520 265.5657 15.06400269294295
STARLINK-1541,46052,53.0536,0.0001456,15.06410351,546.1715076647506,548.1881599267508,1 46052U 20055AB  25335.82390840  .00002455  00000+0  18360-3 0  9997,2 46052  53.0536 195.9532 0001456  86.8289 273.2867 15.06410351294255
STARLINK-1543,46053,53.0528,0.0001509,15.06404296,546.1533582377515,548.2434244588594,1 46053U 20055AC  25335.82760185  .00002748  00000+0  20331-3 0  9997,2 46053  53.0528 195.9359 0001509  91.0904 269.0257 15.06404296294285
STARLINK-1548,46054,53.0516,0.0001212,15.06402503,546.3645352989397,548.0432379298545,1 46054U 20055AD  25335.83497035  .00000818  00000+0  73767-4 0  9998,2 46054  53.0516 195.9050 0001212  89.5954 270.5174 15.06402503294283
STARLINK-1554,46055,53.0531,0.0001493,15.06387968,546.2144744854286,548.2823945761784,1 46055U 20055AE  25335.82024413 -.00000376  00000+0 -63402-5 0  9991,2 46055  53.0531 195.9704 0001493  92.6938 267.4222 15.06387968294281
